{
  "norad_id": 55601,
  "name": "STARLINK-5744",
  "history": [
    {
      "epoch": "2026-03-28T19:10:40.706400",
      "apogee_km": 487.3789654315151,
      "perigee_km": 483.4475238513842,
      "latitude_deg": -17.209797524756024,
      "longitude_deg": 176.81189600005746,
      "semi_major_axis_km": 6863.550244641449,
      "eccentricity": 0.0002864,
      "inclination_deg": 43.0033,
      "raan_deg": 257.4191,
      "arg_perigee_deg": 254.9544,
      "mean_anomaly_deg": 105.0991,
      "mean_motion_rev_day": 15.26790806
    }
  ]
}